0 FENGYUN 1C DEB
1 31675U 99025CCH 13283.71172863  .00003008  00000-0  19203-2 0  1832
2 31675 098.4295 096.4921 0146559 077.8583 283.8946 13.99037311327223
0 FENGYUN 1C DEB
1 31675U 99025CCH 13285.71420383  .00003003  00000-0  19176-2 0  1842
2 31675 098.4298 098.3356 0146395 072.1571 289.5522 13.99049428327508
0 FENGYUN 1C DEB
1 31675U 99025CCH 13287.71665672  .00003015  00000-0  19251-2 0  1854
2 31675 098.4303 100.1804 0146317 066.6008 295.0496 13.99061855327782
0 FENGYUN 1C DEB
1 31675U 99025CCH 13289.71908948  .00003022  00000-0  19286-2 0  1869
2 31675 098.4296 102.0230 0146333 060.9426 300.6327 13.99074244328060
0 FENGYUN 1C DEB
1 31675U 99025CCH 13291.72149971  .00003062  00000-0  19537-2 0  1870
2 31675 098.4293 103.8663 0146203 055.3012 306.1912 13.99087478328346
0 FENGYUN 1C DEB
1 31675U 99025CCH 13293.72388904  .00003082  00000-0  19668-2 0  1881
2 31675 098.4313 105.7141 0145863 049.9150 311.4814 13.99100283328625
0 FENGYUN 1C DEB
1 31675U 99025CCH 13295.72625734  .00003104  00000-0  19801-2 0  1893
2 31675 098.4345 107.5688 0146097 044.3316 316.9446 13.99113046328902
